[{"OBJECT_NAME":"STARLINK-5287","OBJECT_ID":"2023-010AA","EPOCH":"2026-03-07T21:54:18.888768","MEAN_MOTION":15.00435029,"ECCENTRICITY":0.00123408,"INCLINATION":70.0019,"RA_OF_ASC_NODE":28.9133,"ARG_OF_PERICENTER":247.6439,"MEAN_ANOMALY":112.3413,"EPHEMERIS_TYPE":0,"CLASSIFICATION_TYPE":"U","NORAD_CAT_ID":55293,"ELEMENT_SET_NO":999,"REV_AT_EPOCH":17300,"BSTAR":0.022780995,"MEAN_MOTION_DOT":0.00299879,"MEAN_MOTION_DDOT":0},{"OBJECT_NAME":"OBJECT H","OBJECT_ID":"2017-042H","EPOCH":"2026-03-09T21:54:40.929408","MEAN_MOTION":15.07257911,"ECCENTRICITY":0.00117342,"INCLINATION":97.4058,"RA_OF_ASC_NODE":233.05,"ARG_OF_PERICENTER":93.954,"MEAN_ANOMALY":266.303,"EPHEMERIS_TYPE":0,"CLASSIFICATION_TYPE":"U","NORAD_CAT_ID":42832,"ELEMENT_SET_NO":999,"REV_AT_EPOCH":47198,"BSTAR":0.00041037265,"MEAN_MOTION_DOT":6.138e-5,"MEAN_MOTION_DDOT":0}]
